TRANSPORTER-12 OBJECT BA
1 62657U 25009BA  26068.70118713  .00011330  00000+0  42733-3 0  9991
2 62657  97.3985 151.1390 0000403 234.6623 125.4579 15.27214003 63739
STARLINK-35990          
1 66792U 25278B   26068.50555682  .00023226  00000+0  85071-3 0  9990
2 66792  42.9974 115.1677 0000993 201.3802 158.7008 15.27586169 15186
